School Name,IL Address,IL Principal Name,Co-ordinator's Name,SCHOOL_ID,State,City,Aff No
mount litera zee school,"jamni more, near khiribandh, bhagalpur, bihar-812005, near khiribandh, bihar, 812005, india",durgesh sir,"Swet, kamal",SCH1002937,bihar,bhagalpur,330715
doon public school,"dhabolli, ramzanpur, begusarai, bihar begusarai bihar india 851129, ramzanpur, bihar, 851129, india","ganesh, singh","ashok, kumar",SCH1001003675,bihar,begusarai,330514
tarachand dhanuka academy,"churli behind kurlikot police station thakurganj kishanganj bihar, kishanganj, bihar, 855116, india",kapileshwar thakur,Sushil Singh,SCH1001017081,bihar,kishanganj,330877
riya international school,"state bank road, paroo, muzaffarpur, india, bihar 843112, muzaffarpur, bihar, 843112, india",mr.priyeshshriwastava,Miss.PriyaTiwari,SCH1001017291,bihar,muzaffarpur,330955
delhi public school dibrugarh,"airforce rd, maijan borsaikia gaon, mohanbari,, , , ,, dibrugarh, assam, 786012, india",mrs probhati biswas,Mrs Bandita Paul,SCH1003313,assam,dibrugarh,230253
woodbine modern school,"gangasagar, , allalpatti,, darbhanga,, bihar, 846003, india, darbhanga, bihar, 846003, india","nasreen, nawab","Sunita, Singh",SCH1003111,bihar,darbhanga,330056
r.s. international school,"adhikarinagar anchha, daudnagar, aurangabad, bihar, 824143, india, bihar, aurangabad, bihar, 824143, india","sarita, singh","ROHIT, KUMAR",SCH1001023151,bihar,aurangabad,330903
anam school of excellence,"jamuara, po - pathraita, sheikhpura, sheikhpura, bihar, 811105, india","raj kumar, rajan","Syed Farzan, Ahmed",SCH1001034261,bihar,sheikhpura,331118
jankidas kapur public school,"sonipat, sonipat,india,, sonipat, haryana, 131001, india","geetanjali, grover","Rajinder, Kaur",SCH1001036371,haryana,sonipat,530100
english teaching school,"behind railway station, r.t patel marg, nadiad, gujarat 387002,nadiad,gujarat,387002, gujarat, nadiad, gujarat, 387002, india","jainin, raval","Tilok, Goswami",SCH1001013861,gujarat,kheda,430497
shlokaa international school,"bhengari road, bhore, dist - gopalganj, gopalganj, bihar, 841426, india",mr. somnath tiwari,"GITA KUMARI, SHAH",SCH1001036871,bihar,gopalganj,331107
gyandeep public school,"kharaj, hakimabad   samastipur - 848101, bihar, india, hakimabad, bihar, 848101, india","dr. phulndra, bhagat","manoj, kumar",SCH1001037461,bihar,samastipur,330716
holy mother public school,"ratouli road kansapur haryana, yamunanagar, yamunanagar, haryana, 135002, india","monika, kashyap",Rekha,,haryana,yamunanagar,530403
usha public school,"at-patel chowk, p.o.sheikhpura, ps+dist-sheikhpura pin code 811105, sheikhpura, bihar, 811105, india",tanuja bharti,kishore kunal,SCH1001037681,bihar,sheikhpura,330984
sushila educational institute,"p.o, ranti, bihar 847211, ranti, bihar, p.o, ranti, bihar 847211, india","anand, kumar","rakesh, ray",SCH1001038101,bihar,madhubani,330450
public central school,"n.h.103.gandhi chowk khalispur,dist.samastipur.bihar, sitamarhi, bihar, 848505, india","ram mohan, jha","Amit kumar, Bhatta",SCH1001038471,bihar,samastipur,330396
saint capitanio school,"kuarpar po regional engineering college, distt. cochar, silchar cachar assam india 788010, , silchar, assam, 788010, india, kuarpar po regional engineering college, distt. cochar, silchar cachar assam india 788010, , silchar, assam, 788010, india, silchar, assam, 788010, india","arpita, koonthanam","Somnath, ROY",SCH1001038491,assam,cachar,230080
himgiri public school,"himgiri public school, beholi road, samalkha, panipat, haryana, 132101, india, himgiri public school, beholi road, samalkha, panipat, haryana, 132101, india, panipat, haryana, 132101, india","pramod, rathi","RENUKA, ROHILLA",SCH1001015871,haryana,panipat,530559
assam public school,"oil town duliajan , tengakhat, anandapara, dibrugarh,, assam-786602, anandapara, assam, 786602, india, assam, dibrugarh, assam, 786602, india","rita, gurung","Shibashankar, Aich",SCH1001009051,assam,dibrugarh,230142
holy crown school,"kumarpara, masimpur p/o. arunachal, dist. cachar, assam, revenue circle silchar, district : cachar, pin:  788025, cachar, punjab, 788025, india",surajit banda,surajit,SCH1001037211,assam,cachar,230263
shree swaminarayan english medium school,"ramvadi,valsad road dharampur ta.dharampur, dist, valsad, 396050, ramvadi,valsad road dharampur ta.dharampur, dist, valsad, 396050, valsad, gujrat, 396050, india",yogesh,"jamsi, kurkutiya",SCH1001004782,gujarat,valsad,430120
shree swaminarayan english medium school,"ramvadi,valsad road dharampur ta.dharampur, dist, valsad, 396050, ramvadi,valsad road dharampur ta.dharampur, dist, valsad, 396050, valsad, gujrat, 396050, india",yogesh,"jamsi, kurkutiya",SCH1001004782,gujarat,valsad,430273
modern mission public school,"guthani bazar ,siwan, siwan, bihar, 841435, india","rajesh kumar, ray","Ajay, singh",SCH1001038021,bihar,siwan,331030
mithila public school,"r.b. nagar, bhadreshwar,, forbesganj, forbesganj, bihar, 854316, india, forbesganj, bihar, 854316, india","putul, mishra","Amit Kumar, Jha",SCH1001020441,bihar,araria,330021
the adhyayan academy,"vaishali (hajipur) postal address	goraul, vaishali, goraul, bihar, 844118, india","praveen, kumar","Rajesh, yadav",SCH1001040081,bihar,vaishali,331165
om shanti shiksha sadan sr. sec. school,"village nathupur,18 mile stone, sonipat - 131029, haryana, sonipat, haryana, 131029, india","rajesh kumar, gupta","Amrish, Tyagi",SCH1001022071,haryana,sonipat,530710
sanghmitra public school,"pakwalia, kanishk vihar, post-mohaddipur, mairwa road siwan (bihar), pakwalia, kanishk vihar, post-mohaddipur, mairwa road siwan (bihar), pakwalia, kanishk vihar, post-mohaddipur, mairwa road siwan (bihar),, siwan, bihar, 841227, india","ms. nabonita, ghosh","MS. NABONITA, GHOSH",SCH1001024751,bihar,siwan,330337
ihhs academy,"at/post- bathnaha, via- forbesganj, dist.- araria, bihar- 854316koshi colony, forbesganj, bihar,, 854316, india","arjun, kumarsah","PIYUSH, KUMAR",,bihar,araria,330579
navy children school,"nausenabaugh, visakhapatnam, 530002, andhra pradesh, india, visakhapatnam, andhra pradesh, 530002, india",parul,DEEPTHI MAHENDRA,SCH1001021273,andhra pradesh,visakhapatnam,180009
navy children school,"nausenabaugh, visakhapatnam, 530002, andhra pradesh, india, visakhapatnam, andhra pradesh, 530002, india",parul,DEEPTHI MAHENDRA,SCH1001021273,andhra pradesh,visakhapatnam,180015
hyderabad upper primary school,"hps house,, near marri chettu ongole, andhra pradesh 523002, hyderabad, andhra pradesh, 523002, india, hyderabad, hyderabad, andhra pradesh, 523002, india","jagdish, nandipati",Aparna,SCH1001016171,andhra pradesh,prakasam,130766
bradford international school,"main by pass nh-30 didarganj toll plaza, patna, bihar, 800009, india",bharat,pinky,SCH1001010501,bihar,patna,330690
vibrant waves international academy,"gyantrith campus, opp. baroda central co-op, bajwa refinery road, bajwa, vadodara, gujarat, 391310, india, vadodara, vadodara, gujarat, 391310, india","mr.david, mr.david",Rasmika chauhan,SCH1005841,gujarat,vadodara,430386
angel high school,"mirza hayat baig, rahamganj, darbhanga, bihar 846004, darbhanga, bihar, 846004, india","sabiha, khanam",Mohammad,SCH1001008591,bihar,darbhanga,330474
sri krishna public school,"vill- khajuri p.o-nagal, khajuri, nagal, yamunanagar, haryana, india, vill- khajuri p.o-nagal, khajuri, nagal, yamunanagar, haryana, india, yamunanagar, haryana, 135133, india","deepika, rana","VEENA, SHARMA",SCH1001027921,haryana,yamunanagar,530673
the new tulip international school,"sterling city, bopal,, ahmedabad, gujarat, india, 380051, ahmedabad, gujarat, 380051, india",anjali kwatra,Laxmisupriya Mudam,,gujarat,ahmedabad,430108
tirthankar mahaveer vidya mandir,"pawapuri ps-giriyak, dist. – nalanda bihar – 803115, nalanda, bihar, 803115, india",kaushal kishor kaushik,Mr.Manoranjan,SCH1001031011,bihar,nalanda,330376
south point public school,"lodipur, kamla gopalpur, maner,, patna, bihar, 801111, india","ms shikha, mishra","Mr, Manoj",SCH1001064901,bihar,patna,330250
regional secondary school,"jeewach chowk,sapta ,madhubani,bihar,sapta,bihar,847214, jeewach chowk, sapta, bihar, 847214, india","dr manoj, kumarj ha","amit, kumar",,bihar,madhubani,330182
gvk chinmaya vidyalaya,"kothuru, spsr, indukurupet, andhra pradesh, india, 524314, kothuru, andhra pradesh, 524314, india",baddepudi haritha,AJIT THAKUR,SCH1001049571,andhra pradesh,sri potti sriramulu nellore,130434
the new tulip international school,"sterling city, bopal,, ahmedabad, gujarat, india, 380051, ahmedabad, gujarat, 380051, india",anjali kwatra,Laxmisupriya Mudam,SCH1001030751,gujarat,ahmedabad,430108
st. xavier's school,"st. xavier's school near wockhardt hospital kalawad road rajkot, rajkot, gujarat, 360001, india",fr paul meledan,Kajal Desai,SCH1001003885,gujarat,rajkot,430547
yaduvanshi shiksha niketan,"village thanwas, tehsil nangal choudhary, narnaul, haryana, india, 123023, narnaul, haryana, 123023, india",ramesh kumar,PRADEEP KUMAR,SCH1001006978,haryana,mahendragarh,530201
yaduvanshi shiksha niketan,"village thanwas, tehsil nangal choudhary, narnaul, haryana, india, 123023, narnaul, haryana, 123023, india",ramesh kumar,PRADEEP KUMAR,SCH1001006978,haryana,mahendragarh,530480
annex global school,"hajipur-muzaffarpur road, hajipur, vaishali-844102, hajipur, vaishali, bihar, 844102, india","chanda kumari, ray","Sunny, shrestha",SCH1001041902,bihar,vaishali,331075
dav public school,"krishna garh road, distt.-bhagalpur, sultanganj, bihar-813213, bhagalpur, bihar, 813213, india",dr shiv shankar singh,Suman shekhar,SCH1004372,bihar,bhagalpur,330031
scholars abode school,"mahangupur, n.h. 98, via naubatpur, p.o. chiraura,, patna, bihar, india, 801109, patna, bihar, 801109, india",smriti rawat,Smriti Rawat,SCH1001062571,bihar,patna,330197
novel creative academy,"basudeopur chaputa hajipur vaishali, vaishali, bihar, 844102, india",aaradhna kumari,mritunjay,SCH1001072181,bihar,vaishali,330462
lakshya international academy,"bardiha - patepur rd, bishunpur kuahi urf bahlempur, nilo rukundpur, bihar 843110, vaishali, bihar, 843110, india","surendra, rajak",Sandeep,SCH1001074631,bihar,vaishali,330626
d.m.p. holy mission school,"d.m.p holy mission rosera, samastipur, bihar-848210, samastipur, bihar, 848210, india, bihar, samastipur, bihar, 848210, india","sambhu sharan, singh",Abhishek,SCH1001074881,bihar,samastipur,330585
adarsh vikas vidyalaya,"at- mahamadpur, phulwaridarfi, patna, bihar, india, 801105, patna, bihar, 801105, india",dr priyambada,ANJU KUMARIPRASAD,SCH1001002251,bihar,patna,330172
jind public school,"jind public school, village kheri taloda, po jamni, dt - jind, - 126102, jind, haryana, , india, haryana, 126102, jind, haryana, 126102, india",roshni,NITIN JAIN,SCH1001075091,haryana,jind,530432
awadhoot academy,"bindwara, munger-jamalpur road, munger, munger, bihar, 811201, india","mr. satish chandra, singh","Mr. Akash, Kumar",SCH1001075321,bihar,munger,330504
maa maitrayini yogini secondary school,"gundi, saraiya  bhojpur, bihar pin - 802313, bhojpur, bihar, 802313, india",anil kumar singh,Om Prakash Thakur,SCH1001075251,bihar,bhojpur,330111
happy evergreen senior secondary school,"dulana road, mohindergarh, haryana haryana , mahendragarh, 123029, bhiwani, haryana, 123029, india",dr. j.s.kuntal,Ishwar Singh,SCH1001076161,haryana,mahendragarh,530562
dav public school,"near ayurveda college, sara mohanpur, darbhanga, bihar 846006, darbhanga, bihar, 846006, india",snigdha sneha,Gunjesh Kumar,SCH10010126919-1,bihar,darbhanga,330260
sant pathik vidyalaya,"kanchanbag, mahaveer gram ratanganj bhagalpur - 812006, bhagalpur, bihar, 812006, india",bishal jha,Bishal Jha,SCH1001076911,bihar,bhagalpur,330328
anand public school,"khankitta, sabour, bhagalpur -813210, bhagalpur, bihar, 813210, india",navjyoti ranjan verma,NAVJYOTI RANJAN VERMA,SCH1001071622,bihar,bhagalpur,330774
guru teg bahadur public school,"model town, karnal, haryana, 132001, india, haryana, india, haryana, karnal, haryana, 132001, india","sudarshan, sharma","Neena, Choudhary",SCH1001015263,haryana,karnal,530084
shiksha bharti public school,"village pakhal, sohna pali road,, faridabad/2-a-116, n.i.t, faridabad, haryana, 121001, india","susheel, gera","SUSHEEL, GERA",SCH1001077931,haryana,faridabad,530584
rahmani school of excellence,"9ff8+65r, belan bazar, munger, munger, bihar, 811201, india",intekhab subani,Tabish Shabby,SCH1001078261,bihar,munger,330938
"dav public school, dumraon","near bmp campus, nandan dera, dumraon, buxar pin-802119, buxar, bihar, 802119, india",chintu kumar pathak,Deepak singh,SCH1004374,bihar,buxar,330736
jainendra public school,"sector-1, panchkula pin code:134109, panchkula, haryana, 134109, india","mrs leena, sood","Ms Suman, Nain",SCH1001078701,haryana,panchkula,530068
montessori senior secondary school,"montessori senior secondary school, 46/1-l-1, a- camp, kurnool, - 518002, kurnool, andhra pradesh, 518002, india","bijjam, sri jyothi","Bijjam, Sri Jyothi",SCH1001078711,andhra pradesh,kurnool,130467
aaron public school,"employees colony, behind civil courts, jind, haryana, 126102, india","mr. ashok sharma, ashok","Mr. Ashok Sharma, Sharma",SCH1001078721,haryana,jind,530358
sri prakash vidyaniketan english medium school,"d.b.v raju township, rajahmundry, diwancheruvu, andhra pradesh 533296, east godavari, andhra pradesh, 533296, india",vimala,VIMALA,SCH1001079261,andhra pradesh,east godavari,130411
lord krishna public school,"sihma,narnaul, mahendragarh, haryana 123028, sihma,narnaul, mahendragarh, haryana 123028, mahendragarh, haryana, 123028, india",sandeep,"pratap, singh",SCH1001079371,haryana,mahendragarh,530600
swami vivekanand public school,"imampur, bhagalpur, sh-25, banka deoghar road, bhagalpur, bhagalpur, bihar 812002, bhagalpur, bihar, 812002, india",anand kumar anand kumar,deepesh,SCH1001029931,bihar,bhagalpur,330718
happy valley school,"fatehpur, near zero mile, bhagalpur - 813213, bhagalpur, bihar, 813213, india",sanober shaheen,SANOBER SHAHEEN,SCH1001080211,bihar,bhagalpur,330528
manas bharti educational complex,"manas bharti educational complex,gangti,gonawan, nawada,bihar, nawada, bihar, 805110, india","arjun, kumar","Abhishek, Mishra",SCH1001081031,bihar,nawada,330465
goalpara english school,"bhalukdubi, the-balijana, p.o.-bhalukdubi, p.s. - goalpara, dist - goalpara, assam, pin - 783101, bhalukdubi, assam, 783121, india",dhruba kalita,NAZRUL,SCH1001080971,assam,goalpara,230082
gyanmanjari primary school,"gyanmanjari primary school at. maliya, ta.mahuva, dist.bhavnagar, bhavnagar, gujarat, 364290, india",kukadiya jaykumar rajeshkumar,KUKADIYA JAYKUMAR RAJESHKUMAR,SCH1001081431,gujarat,bhavnagar,430469
valley view school,"bnsh road, north lakhimpur, assam 787001, north lakhimpur, assam, 787001, india, assam, lakhimpur, assam, 787001, india",reema devi,Debananda Phukn,,assam,lakhimpur,230156
abhyas the global school,"4 155, juvvalapalem rd, pedamiram  bhimavaram andhra pradesh, west godavari, andhra pradesh, 534204, india",v satyanarayana,V Satyanarayana,SCH1001082631,andhra pradesh,west godavari,130301
loyola school,"nh31 ranchi road, harnaut nalanda, bihar - 803110, nalanda, bihar, 803110, india",fr. asit lakra,SUNIL,SCH1001082721,bihar,nalanda,330310
crystal international school,"park, jamnagar - rajkot hwy, brahmnad society, ghanteshwer, rajkot, gujarat 360410, park, jamnagar - rajkot hwy, brahmnad society, ghanteshwer, rajkot, gujarat 360410, rajkot, gujarat, 360410, india","miss anjna, sharma",Miss Ritu,SCH1001083071,gujarat,rajkot,430561
ravi shankar public school,"kharahiya, kharahia, deodha, bihar 848208 samastipur, kharahiya, samastipur, bihar, 848208, india","saroj kumar, suman","randhir, sir",SCH1001083221,bihar,samastipur,330784
sree bhanodaya english medium high school,"etteri(v&po),g d nellore(m), (d) pin : , -, chittoor, andhra pradesh, 517125, india",r lavanya,R LAVANYA,SCH1001083251,andhra pradesh,chittoor,130627
sardar gurmukh singh memorial school,"near gurudwara,, mewat gurgaon, nuh, haryana, 122107, india, haryana, nuh, haryana, 122107, india",paramjeet kaur,Jyoti,SCH1001083271,haryana,nuh,530604
prakash international school,"nalanda nalanda bihar india  803114, nalanda, bihar, 803114, india",satya prakash,Jitender,SCH1001083381,bihar,nalanda,330992
nunuvati public school,"rohua apuchh, mushahari, muzaffarpur, bihar - 842001, muzaffarpur, bihar, 842001, india",jai ram singh,Vivek,SCH1001083431,bihar,muzaffarpur,330757
buddha public school,"north of matsyagandha, ward no.1, saharsa, bihar 852124, saharsa, bihar, 852124, india",naveen kumar shah,Avinash Kumar,SCH1001083471,bihar,saharsa,330196
patmer school,"khervyanpur,chandmari shahapur danapur cantt ,, patna, bihar, 801503, india","bimal, kumar","BIMAL, KUMAR",SCH1001083661,bihar,patna,330513
p. v. lakhani english medium school,"lusvada, saribujrang, po. amalsad,, gandevi, dist. navsari ,gujarat , 396310, india",sabana chaus,priyanka patel,SCH1001083701,gujarat,navsari,430339
mother teresa academy,"benipur darbhanga bihar word no 23,, mangal chowk road, benipur, darbhanga - 847103, darbhanga, bihar, 847103, india",dharm vir singh,Dhrity Roy,SCH1001083691,bihar,darbhanga,330720
sacred heart convent school,"sherpur danapur patna bihar, patna, bihar, 801503, india",reena kunari,Gaurav kumar,SCH1001083941,bihar,patna,331197
nalanda vidya mandir,"opp. mahesh auto centre n.h-31, 803119, nalanda, bihar, 803119, india",ashish ranjan,Arpan Kumar,SCH1001084201,bihar,nalanda,330320
maa maitrayini yogini secondary school,"gundi, saraiya  bhojpur, bihar pin - 802313, bhojpur, bihar, 802313, india, bhojpur, bihar, 802313, india",anil kumar singh,OP THAKUR,,bihar,bhojpur,330111
christ jyoti school,"barbhala, pathsala, po gobindapur, bajali dist, assam, pin 781326, pathsala, assam, 781326, india",sr thejus csn,Mr Justin R Marak,SCH1001004694,assam,barpeta,230328
new horizon school,"shahpur tamauni, simaria,amarpur road,, bhagalpur, bihar, 812005, india","samina, rahbar","Zarqua, Naseem",SCH1001002661,bihar,bhagalpur,330284
fellowship mission school,"fellowship nagar, nr. haria park,, silvassa road, dungra, vapi, gujarat, 396191, india, vapi, gujarat, india, 396191, vapi, gujarat, 396191, india","sunita, rajput",Pushpa,SCH10010840422,gujarat,valsad,430093
samarpan public school,"samarpan education and research campus, kh-7 samarpan circle sector-28, gandhinagar, gujarat, 382028, india",sunil keshri,SUNNY SINGH,SCH1001039441,gujarat,gandhinagar,430465
crystal international school,"char khosiya naka opposite hdfc bank, modasa rd, highway, lunawada, gujarat 389230, mahisagar, gujarat, 389230, india","sumeet, singh","Madhuri, MS",SCH10010840466,gujarat,mahisagar,430606
valley view school,"bnsh road, north lakhimpur, assam 787001, lakhimpur, assam, 787001, india",reema devi,Debananda Phukn,SCH1001031341,assam,lakhimpur,230156
vivekanand public school,"warisaliganj, nawada-805130, nawada, bihar, 805130, nawada, bihar, 805130, india",parmanand,"Rajesh, Kumar",SCH1001079221,bihar,nawada,330167
a b school,"partapore  chhapra mogar road navsari 396463, navsari, gujarat, 396463, india",amrut chhatrola,Alpaben Chhatrola,SCH10010840486,gujarat,navsari,430557
nirmala high school,"atmakur, mangalagiri,, andhra pradesh 522503, india, mangalagiri,  guntur, andhra pradesh, 522503, india",sr. s. gnana soundari,Mary Kumari,SCH10010840498,andhra pradesh,guntur,130517
delhi public school samastipur,"muktapur samastipur 848101 bihar, muktapur samastipur 848101, samastipur, bihar, 848101, india","ganga narayan, jha","RAM BINAY, JHA",SCH100108404184,bihar,samastipur,330775
bal vikas progressive school,"village jatol, panipat, haryana, panipat, haryana, 132103, india","anupama, shah","Sangeeta, Sharma",SCH100108404238,haryana,panipat,530642
manas vidyalaya,"babhna, bihar 804408	jehanabad	bihar, jehanabad, bihar, 804408, india",ajay kumar,Avinas,SCH100108404253,bihar,jehanabad,330208
akrg high school,"akrg high school, opposite essar petrol bunk ,yarnagudem road,timmaraju palem ,nidadavole mandal,a.p,534301, west godavari, andhra pradesh, 534301, india",mrs g padmaja,Ms.B.Vennela,SCH100108404286,andhra pradesh,west godavari,130511
kendriya vidyalaya,"assam university, silchar, 788011, silchar, assam, 788011, india","ravindra pratap, singh",Ravindra Pratap,SCH100108404291,assam,cachar,200041
kendriya vidyalaya,"assam university, silchar, 788011, silchar, assam, 788011, india","ravindra pratap, singh",Ravindra Pratap,SCH100108404291,assam,cachar,200059
shree raj rajeshwari vidya mandir,"bharti villa garden township, chharwada , vapi, gujarat, 396191, vapi, gujarat, 396191, india",dr.rajeshwari jadeja,Mrs dipti panchal,SCH100108404292,gujarat,valsad,430242
global public central school,"lakshmisahar, ward no-xvi, hailakandi p.o.-lakshmisahar, dist.-hailakandi pin-788152,, hailakandi, assam, 788152, india",dilwar aman manna,Kripesh Karmakar,SCH100108404266,assam,hailakandi,230152
nanduba english academy,"bharthana,vesu, surat, gujarat, 395017, surat, gujarat, 395017, india",dr. monika sharma,HIMANSHU SHARMA,SCH1001021061,gujarat,surat,430496
sutara mehi mission school,"indianoil, basuhar, bihar 854101 sureshwar nagar, devipur,kursela sameli district, katihar, bihar, 854101, india",satyajit,SATYAJIT,SCH100108404363,bihar,katihar,330801
gurukul group of educational wing,"gurukul group of educational wing na-howly, p.o- janaram chowka, mangaldoi, district- darrang, pin- 784529, assam, mangaldoi, assam, 784529, india",mrs. sangeeta adhikari sarkar,Koyel Bhattacharyya,SCH100108404367,assam,darrang,230192
scholars abode school,"ashiana - digha rd, behind friends colony, sankar colony, kautilya nagar, patna, bihar 800025, patna, bihar, 800025, india",ashish,shubhum,SCH10010840433,bihar,patna,330197
bimala academy,"address : baghjan, jakhalabandha,nagaon,assam 782002, jakhalabandha, assam, 782002, india",sumi,Sumi,SCH100108404378-1,assam,nagaon,230191
magadh international school,"block road, opp son shivir, tekari, gaya , bihar - 824236, block road, opp son shivir, tekari, gaya , bihar - 824236, block road, opp son shivir, tekari, gaya , bihar - 824236, block road, opp son shivir, tekari, gaya , bihar - 824236, block road, opp son shivir, tekari, gaya , bihar - 824236, india",amit kumar,AMIT KUMAR,SCH100108404368,bihar,gaya,330789
the vizag international school,"sy.no.382/2 , korukonda vizianagaram, andhra pradesh 535214 india, vizianagaram, andhra pradesh, 535214, india",lakshmana murthy bodasing,LAKSHMANA MURTHY BODASING,SCH1001084501,andhra pradesh,vizianagaram,130241
p.l.shiksha niketan,"p.l.shiksha niketan at- mathurapur po-gogri gogri jamalpur tehsil-gogri dist.-khagaria bihar, khagaria, bihar, 851202, india",mritunjay kumar jha,Mritunjay Kumar Jha,SCH1001032341,bihar,khagaria,330429
tinsukia english academy,"manav kalyan, parbatia namghar path, sbi colony, tinsukia, assam 786125, tinsukia, assam, 786125, india",kongkona hazarika,Kamal Joshi,SCH100108404411,assam,tinsukia,230011
brilliant public school,"chehrakalan mahua vaishali hajipur bihar, vaishali, bihar, 844122, india",gunjan kumar singh,Gunjan Kumar Singh,SCH100108404426,bihar,vaishali,331037
adarsh vikas vidyalaya,"at- mahamadpur, phulwaridarfi, patna-801105,patna,bihar,801105, phulwaridarfi, at- mahamadpur,, bihar, 801105, india",priyambada,ANJU KUMARIPRASAD,SCH100108404389,bihar,patna,330172
acme school,"opposite to eenadu office, potturu, guntur, andhra pradesh - 522005, guntur, andhra pradesh, 522005, india","nandamuri, sowgandh","T, Tejaswini",SCH100108404517,andhra pradesh,guntur,130763
the jaintpur public school,"maripur muzaffarpur bihar pin code 842001, muzaffarpur, bihar, 842001, india",manoj kumar,Abhinandan,SCH100108404537,bihar,muzaffarpur,330040
himgiri public school,"himgiri public school, beholi road, samalkha, panipat, haryana, 132101, india, panipat, haryana, 132101, india",promod rathi,Renuka Rohilla,SCH1001015871,haryana,panipat,530559
vishnu school,"kovada , bheemavatam , west godavari , andhra pradesh , 534202, kovada , bheemavatam , west godavari , andhra pradesh , 534202, bheemavaram, andhra pradesh, 534202, india",bindhu,"Sulochana, Rani",SCH100108404553,andhra pradesh,west godavari,130240
city public school,"sikhar, gaya-nawada road,  p.o.-baragandhar, manpur,  gaya , bihar- 823003, gaya, bihar, 823003, india",madha kuila,Madha Kuila,SCH100108404586,bihar,gaya,330257
homerton grammar school,"faridabad,hr,121001,india, faridabad, haryana, 121001, india","archana, dogra",Himani,SCH100108404590,haryana,faridabad,530064
kalawad english medium school,"kalawad english medium school.. hirapara campus near shitla colony.. kalawad dist.. jamnagar, , kalawad, gujarat, 361160, india, kalawad, gujarat, 361160, india",hardas kandoriya,Rajesh Barot,SCH100108404617,gujarat,jamnagar,430389
gurukripa academy,"satkar chowk kahalgaon bhagalpur, bhader, bihar 813203, bhagalpur, bihar, 813203, india",binay kumar,SAMIR KUMAR,SCH100108404620,bihar,bhagalpur,330654
the suman nirmal minda school,"at. vill hathipura, ta. detroj - rampura ahmedabad 382120, hathipura, detroj, india, detroj, gujarat, india, 382120, detroj, gujarat, 382120, india","ivo alvan, lowden","Radhika, Trikha",SCH1001030891,gujarat,ahmedabad,430455
new era international school,"kanpa saidabad ranitalab patna 801104, patna, bihar, 801104, india",abhinav kumar,Rajesh Kumar,SCH100108404809,bihar,patna,331162
navyug public school,"old rohtak road, sonepat, haryana-131001, sonepat, haryana, 131001, india",ms. neetu arora,Hemant Sharma,SCH100108404834,haryana,sonipat,530102
the new tulip international school,"sterling city, bopal,, ahmedabad, gujarat, india, 380051, ahmedabad, gujarat, 380051, india",anjali kwatra,Anjali Kwatra,SCH1001030751,gujarat,ahmedabad,430108
tagore school of studies,"badarpur ghat near yamaha showroom after iti badarpur assam engineering, badarpur, assam, 788806, india","susmitadey, nandi","Kishalaya, Purkayastha",SCH1001030051,assam,karimganj,230098
loyola school,"nh31 ranchi road, harnaut nalanda, bihar - 803110, harnaut nalanda, bihar, 803110, india",fr. asit lakra,SUNIL,SCH1001082721,bihar,nalanda,330310
dav public school,"near ayurveda college, sara mohanpur, , bihar 846006, darbhanga, bihar, , india, darbhanga, darbangha, bihar, 846006, india",gunjesh kumar,Gunjesh Kumar,SCH10010126919-2,bihar,darbhanga,330260
kendriya vidyalaya,"samastipur e c railway samastipur distt bihar, samastipur, bihar, 848101, india",mr jitendra kumar,MR JITENDRA KUMAR,SCH1001084041068,bihar,samastipur,300015
jajba world school,"etarpur, bihar 804404, bihar, etarpur, bihar, 804404, india","prateek vikas, wilson",Pragya wilson,SCH1001084041095,bihar,gaya,330807
silver bells public school,"shantinagar, kalvibid, bhavnagar, shantinagar, kalvibid, bhavnagar, bhavnagar, gujarat, 364002, india","mr. chakrapani, estarla","Mr. Phillip, Greene",,gujarat,bhavnagar,430107
priya cement high school,"sreepuram, boincheruvupalli(v), peapully (m), nandyal (dist.), andhrapradesh - 518220	nandyal, sreepuram, andhrapradesh, 518220, india",sreekumaran,Uday Bhanu,SCH1001084041100,andhra pradesh,kurnool,130745
unnati english academy,"r.s.no. 38, ""vari gruh"", opp, raghuramji party plot/ratna anushri apt, near umrigar school, umra., surat, gujrat,, 395007, surat, gujrat, 395007, india",pankaj sharma,pankaj sharma,SCH1001084041140,gujarat,surat,430399
saraswati international school,"at-sherpur, nh-33 road, asthawan, bihar 803107, nalanda, bihar, 802107, india",kundan singh,Neeraj kumar pandey,SCH1001084041148,bihar,nalanda,331102
krishna public school,"nahar road railway station kosli rewari haryana, rewari, haryana, 123302,, rewari, haryana, 123302, india","sanjiv kumar, verma","Sanjiv Kumar, Verma",SCH1001084041228,haryana,rewari,530418
airport school,"aai residential colony, opp s v p international airport, sardarnagar, ahemdabad, gujrat, 382475, india",ms. shalini dhanwani,suman,SCH1001084041235,gujarat,ahmedabad,430133
presidency global school,"cantt road, khagaul, patna, bihar 801105, patna, patna, bihar, 801105, india",dr. ajay kumar pgs7189@gmail.com,Awdhesh kumar,SCH1001084041279,bihar,patna,330279
sarala birla gyan jyoti,"national highway-31 opp. rajiv gandhi indoor stadium, amingaon, national highway-31 opp. rajiv gandhi indoor stadium,, guwahati, assam, 781031, india",diganta haider,Binani das,SCH1001084041265,assam,kamrup,230069
auxilium school,": auxilium school dholai  mahadevpur, chahchar, assam, 788114, india",sr mary lamare,Patrick Douglesh Shadap,SCH1001084041370,assam,cachar,230326
acme school,"1st line, vidhyadharani colony,, opp: eenadu office, pothurur,, guntur district,, andhra pradesh, 522005, india",sowgandh krishna nandamuri,Tejaswini,SCH1001084041410,andhra pradesh,guntur,130763
kamala high school,"tarlupadu road, near poleramma temple,, markapur, goguladinne,, prakasam ,, andhra pradesh, 523316, india",swarup ranjan majhi,g v narayana reddy,SCH1001084041436,andhra pradesh,prakasam,130707
mount carmel english school,"parora, purnea, bihar-854304, purnea, bihar, 854304, india, purnea, purnea, bihar, 854304, india",suraj kumar choudhary,"sumanth, choudhary",SCH1001084041444,bihar,purnia,330823
lakshya international academy,"bardiha - patepur rd, bishunpur kuahi urf bahlempur, nilo rukundpur, bihar 843110, bishunpur, bihar, 843110, india","surendra, rajak",SANDEEP,SCH1001074631,bihar,vaishali,330626
christ jyoti school,"barbhala, pathsala, po gobindapur, bajali dist, assam, pin 781326, barpeta, assam, 781326, india",sr thejus csn,Mr Justin R Marak,SCH1001004694,assam,barpeta,230328
thakurganj shishu vidya niketan,"s.y.m. road, thakurganj, ward-12, thakurganj, post office & police station, kishanganj district, kishanganj, bihar, 855116, india",aninda kumar das,Arjun Kumar mandal,SCH1001084041579,bihar,kishanganj,330804
aprs periyavaram,"karnakamma street, venkatagiri, andhra pradesh 524132, karnakamma street, venkatagiri, andhra pradesh 524132, karnakamma street, venkatagiri, andhra pradesh 524132, andhra pradesh, venkatagiri, india","m, hemavathi","M, Hemavathi",SCH1001084041610,andhra pradesh,tirupati,120917
apms thummisi,"thummisi, thummisi ,517423 , andhra pradesh, thummisi, thummisi ,517423 , andhra pradesh, thummisi, thummisi ,517423 , andhra pradesh, andhra pradesh, thummisi, india",latha,Latha,SCH1001084041641,andhra pradesh,chittoor,120245
rajeev global school,"nh28 danapur gopalganj 841428, manjha, bihar, 841428, india",dr pushkar giri,Ashutosh Kumar,SCH1001084041642,bihar,gopalganj,330899
nalanda public school,"nalanda rd,, japarkuchi, assam, 781335, india",ajay jain,Ajay Jain,SCH1001017152,assam,nalbari,230129
scottish public school,"scottish public school, barmasiya, katihar, bihar 854105,katihar,bihar,854105, katihar, bihar, 854105, india",shree niwas,Pawan Kumar,SCH1001038403,bihar,katihar,330102
bimala academy,"address : baghjan, jakhalabandha,nagaon,assam 782002, jakhalabandha, assam, 782002, india",sumi,Sumi,SCH100108404378,assam,nagaon,230191
anandram dhandhania sarswati vidya mandir,"banshi jha lane, burhanath road,bhagalpur, bihar, bhagalpur, bihar, 812001, india",sumant kumar,SUMANT KUMAR,SCH1001084041682,bihar,bhagalpur,330198
bimala academy,"address : baghjan, jakhalabandha,nagaon,assam 782002, jakhalabandha, assam, 782002, india, jakhalabandha, assam, 782002, india",sumi,Sumi,SCH100108404378,assam,nagaon,230191
prakash international school,"nalanda nalanda bihar india 803114, nalanda nalanda bihar india 803114, nalanda, bihar, 803114, india","satya, prakash","Satya, Prakash",SCH1001083381,bihar,nalanda,330992
brundavan english medium school,"brundavan english medium school, near nagalamma temple, santhapet, chittoor, andhra pradesh 517004, brundavan english medium school, near nagalamma temple, santhapet, chittoor, andhra pradesh 517004, brundavan english medium school, near nagalamma temple, santhapet, chittoor, andhra pradesh 517004, andhra pradesh, 517004, india","sailaja, kumari","Sailaja, Kumari",SCH1001084041724,andhra pradesh,chittoor,130607
delhi public school basuara,"vill+po-basuara,madhubani, bihar, 847212, madhubani, bihar, 847212, india",ganesh kumar yadav,Ganesh Kumar Yadav,SCH1001084041827,bihar,madhubani,330609
guardian public school,"daryapur, daryapur-gurua road, cherki, gaya, bihar 824237, gaya, bihar, 824237, gaya, bihar, 824237, india",vineeta singh,Banty Kumar,SCH1001084041854,bihar,gaya,330947
pragati high school,"main road, sattenapalli -522403, palnadu district, andhra pradesh, guntur, andhra pradesh, 522403, india",makkenada,Makkenada,SCH1001084041885,andhra pradesh,guntur,130738
azim national school,"at asrar nagar, kishanganj, bihar, 855101, kishanganj, bihar, 855101, india",chhetri rk,CHHETRI RK,SCH1001084041886,bihar,kishanganj,331140
gyanmanjari primary school,"at. maliya, ta.mahuva, dist.bhavnagar, bhavnagar, gujrat, 364290, india",kukadiya jaykumar rajeshkumar,KUKADIYA JAYKUMAR RAJESHKUMAR,SCH1001081431,gujarat,bhavnagar,430469
divine happy school,"chatrapati talab road warsaligunj, mirjanhat, bhagalpur - 812005, bhagalpur, bihar, 812005, india",dr. anita pandey,Anita,SCH1001084041959,bihar,bhagalpur,330277
jankidas kapur public school,"jankidas kapur public school, sector - 14, sonipat - 131001 (haryana), sonipat, haryana, 131001, india","geetanjali, grover","Rajinder, Kaur",SCH1001036371,haryana,sonipat,530100
prakash international school,"nalanda nalanda bihar india 803114, nalanda nalanda bihar india 803114, nalanda, bihar, 803114, india","satya, prakash","satya, prakash",SCH1001083381,bihar,nalanda,330992
gyanada international school,"chhawahi khas on national highway 27, gopalganj, bihar 841428, india, gopalganj, bihar, 841428, india",jitendra srivastava,Navin,SCH1001084042054,bihar,gopalganj,330569
homerton grammar school,"faridabad, haryana ,121001,india, faridabad, haryana, 121,002, india",ms. archana dogra,himani kakkar,SCH100108404590,haryana,faridabad,530064
ss public school,"dighwadubauli gopalganj, gopalganj, bihar, 841409, india",amrita singh,Amrita singh,SCH1001084042223,bihar,gopalganj,330311
shribaba mastnath public school,"civil road rohtak haryana, rohtak, haryana, 124001, india","mrs. kamla, gill","Mrs. Upasna, Kaushik",SCH1001084042258,haryana,rohtak,530090
pragya heritage international school,"bypass road basgama ,gulabbagh purnea bihar, gulabbagh, bihar, 854326, india, ,gulabbagh purnea bihar, gulabbagh, bihar, 854326, india, bihar, gulabbagh, bihar, 854326, india, bihar, 854326, india",pankaj kumar sinha,kumar gaurav singh,SCH1001084041597,bihar,purnia,330963
hr imperial public school,"chapra bihar 841301, chapra, bihar, 841301, india",neeraj kumar,Shreya mital,SCH1001084042325,bihar,saran,330360
bal vikas progressive school,"jatol village, panipat, haryana 132103, panipat, haryana, 132103, india",anupama shah,Sangeeta Sharma,SCH100108404238,haryana,panipat,530642
jainendra public school,"sector-1, panchkula pin code:134109, panchkula, haryana, 134109, india, panchkula, panchkula, haryana, 134109, india","mrs leena, sood","Mrs Leena, Sood",SCH1001078701,haryana,panchkula,530068
prarambhika,"at ahmedpur, baluaa, post maner, distt. patna, patna, bihar – 801113, patna, bihar, 801113, india",ritu srivats,Ritu srivats,SCH1001084042366,bihar,patna,330564
yaduvanshi shiksha niketan,"village thanwas, tehsil nangal choudhary 123023, village thanwas, tehsil nangal choudhary 123023, narnaul, haryana, 123023, india","darminder, singh","darminder, singh",SCH1001006978,haryana,mahendragarh,530201
yaduvanshi shiksha niketan,"village thanwas, tehsil nangal choudhary 123023, village thanwas, tehsil nangal choudhary 123023, narnaul, haryana, 123023, india","darminder, singh","darminder, singh",SCH1001006978,haryana,mahendragarh,530480
brahma baba techno school,"janagaon, titaguri pt-i, kokrajhar, assam ,783370, kokrajhar, assam, 783370, india","nilakshi, doimary","Promesh, Basumatary",SCH100108404862,assam,kokrajhar,230270
the athena school,"r t c colony, opp to carbide factory, dinnedevarapadu village panchayat, kurnool, andhra pradesh, 518002, india",k b jyothi,Mr. A V N Lokesh Kumar,SCH1001030271,andhra pradesh,kurnool,130463
new era international school,"kanpa saidabad ranitalab patna 801104, patna, bihar, 801104, india, patna, bihar, 801104, india",abhinav kumar,Rajesh Kumar,SCH100108404809,bihar,patna,331162
akrg high school,"akrg high school, opposite essar petrol bunk ,yarnagudem road,timmaraju palem ,nidadavole mandal,a.p,534301, west godavari, andhra pradesh, 534301, india",mrs g padmaja,Ms.B.Vennela,SCH100108404286,andhra pradesh,west godavari,130511
delhi public school samastipur,"muktapur samastipur 848101 bihar, muktapur samastipur 848101 bihar, muktapur samastipur 848101 bihar, bihar, samastipur, india, samastipur, bihar, 848101, india",ganga narayan jha,RAM BINAY JHA,SCH100108404184,bihar,samastipur,330775
chinmaya vidyalaya,"railway station road, hbg nagar, beside state bank of india, adoni, andhra pradesh 518301, railway station road, hbg nagar, beside state bank of india, adoni, kurnool, andhra pradesh, 518301, india","kavitha, a","Pushpa, A",SCH1001084042467,andhra pradesh,kurnool,130096
carmel english school,"india, 532214, andhra pradesh, srikakulam, kallata,, hiramandalam,, srikakulam, andhra pradesh, 532214, india",manuyel chandra paik,Birendra Sasovar,SCH1001084042504,andhra pradesh,srikakulam,130344
nanduba english academy,"india, 395017, gujarat, surat, bharthana,vesu, gujarat",dr. monika sharma,HIMANSHU SHARMA,SCH1001021061,gujarat,surat,430496
sanjay gandhi memorial public school,"india, 135001, haryana, yamunanagar, harnaul, yamunanagar - haryana 135001",dherminder khera,Ms. Nisha Kamboj,SCH100108404576,haryana,yamunanagar,530595
anand public school,"india, 813210, bihar, bhagalpur, khankitta, sabour, bhagalpur -813210, bhagalpur, bihar, 813210, india","verma, navjyoti ranjan",NAVJYOTI RANJAN VERMA,SCH1001071622,bihar,bhagalpur,330774
airport school,"india, 382475, gujrat, ahemdabad, aai residential colony, opp s v p international airport, sardarnagar",ms. shalini dhanwani,Suman,SCH1001084041235,gujarat,ahmedabad,430133
bahera public school,"india, 847201, bihar, darbhanga, bahera public school, bahera,darbhanga bihar,darbhanga,bihar,",abdul malik rizvi,Vivek kumar,SCH1001042731,bihar,darbhanga,330523
maa maitrayini yogini secondary school,"india, 802313, bihar, bhojpur, gundi, saraiya bhojpur, bihar pin - 802313",anil kumar singh,Om prakash Thakur,SCH1001075251,bihar,bhojpur,330111
sampoorna kendra vidyalaya,"india, 786001, , assam, dibrugarh, , kc gogoi path,",maha sweta nawar,Dilip Kumar Saikia,SCH1001084042578,assam,dibrugarh,230119
samithi english medium school,"samithi english medium schoolbehind postal, gujarat, surat, 394210, samithi english medium schoolbehind postal, gujarat, surat, 394210, samithi english medium schoolbehind postal, gujarat, surat, 394210, gujarat, surat, india","runa, nath",Runa,SCH1001012021,gujarat,surat,430284
sarala birla gyan jyoti,"national highway-31 opp. rajiv gandhi indoor stadium, amingaon, national highway-31 opp. rajiv gandhi indoor stadium, amingaon, national highway-31 opp. rajiv gandhi indoor stadium, amingaon, national highway-31 opp. rajiv gandhi indoor stadium, amingaon, 781031, india",diganta haidar,Diganta haidar,SCH1001084041265,assam,kamrup,230069
kendriya vidyalaya,"wp9r+4gx, dhodar ali rd, ward no- 4, nazira, nazira, assam, 785685, india",murli manohar,Naveen,SCH10010530824,assam,sivasagar,200005
kendriya vidyalaya,"wp9r+4gx, dhodar ali rd, ward no- 4, nazira, nazira, assam, 785685, india",murli manohar,Naveen,SCH10010530824,assam,sivasagar,200020
shri mahavir jain public school,"railway road,kurukshetra, kurukshetra, haryana, 136118, india",satish kumar kasar,SATISH KUMAR KASAR,SCH100108404565,haryana,kurukshetra,530310
dav public school,"near ayurveda college, sara mohanpur, , bihar 846006, darbhanga, bihar, , india, darbhanga, darbhanga, bihar, 846006, india",snigdha sneha,Gunjesh Kumar,SCH10010126919,bihar,darbhanga,330260
best model public school,"hajipur, jandaha, vaishali, bihar, 844505, jandaha, bihar, 844505, india",gunjan,amod,SCH1001084042644,bihar,vaishali,330299
"st. thomas school, dhakuakhana","dhakuakhana, konwar ghahi, assam, dhakuakhana, assam, india, 787055, dhakuakhana, assam, 787055, india",seby m baby,mathew jijo,SCH1002242,assam,lakhimpur,230183
sri bhavani vidyaniketan,"opposite indian overseas bank, mosayyapeta,atchutapuram,anakapalle,visakhapatnam,andhra pradesh 531011, anakapalle, andhra pradesh, 531011, india",dharmireddi srinivasu,DHARMIREDDI SRINIVASU,SCH100108404406,andhra pradesh,anakapalli,130771
jind public school,"jind public school, village kheri taloda, po jamni, dt - jind, haryana - 126102, jind, haryana, 126102, india, jind, harayana, 126102, india",roshni,NITIN JAIN,SCH1001075091,haryana,jind,530432
atmiya green school,"""maniba campus"" nh no.8, nr.cable bridge,zadeshwar, bhruch-, bhruch, .cable bridge,zadeshwar, gujarat, 392011, india",krishan chandra upadhyay,Krishan Chandra Upadhyay,SCH1001084041365,gujarat,bharuch,430460
vidya vihar residential school,"village parora, block k nagar, district purnea, purnea, bihar, 854301, india","mr. nikhil, ranjan","dr. vijay kumar, tiwar",SCH1001033711,bihar,purnia,330061
sheetla public school,"sheetla public school nandal road, opp. gas agency, lakhan majra (rohtak) 124514, rohtak, haryana, 124514, india",kavita rani,KAVITA RANI,SCH1001063321,haryana,rohtak,530739
saint capitanio school,"kuarpar po regional engineering college, distt. cochar, silchar cachar assam india 788010, , silchar, assam, 788010, india, kuarpar po regional engineering college, distt. cochar, silchar cachar assam india 788010, , silchar, assam, 788010, india, kuarpar po regional engineering college, distt. cochar, silchar cachar assam india 788010, , silchar, assam, 788010, india, assam, 788010, india",arpita koonthanam,somnath roy,SCH1001038491,assam,cachar,230080
saint capitanio school,"kuarpar po regional engineering college, distt. cochar, silchar cachar assam india 788010, , silchar, assam, 788010, india, kuarpar po regional engineering college, distt. cochar, silchar cachar assam india 788010, , silchar, assam, 788010, india, kuarpar po regional engineering college, distt. cochar, silchar cachar assam india 788010, , silchar, assam, 788010, india, kuarpar po regional engineering college, distt. cochar, silchar cachar assam india 788010, , silchar, assam, 788010, india, kuarpar po regional engineering college, distt. cochar, silchar cachar assam india 788010, , silchar, assam, 788010, india, india",arpita koonthanam,somnath roy,SCH1001038491,assam,cachar,230080
vijnana vihara english medium high school,"keshava nagar,nutakki,, , mangalagiri mandal,, guntur, andra pradesh, 522303, india",venigalla suresh,Sowjanya,SCH1001084042803,andhra pradesh,guntur,130693
mount litera zee school,"nepura silao, nalanda, bihar, bihar, 803117,, india, nepura silao, nalanda, bihar, bihar, 803117,, india, nalanda, bihar, 803117, india",shoban,Anurag Thapa,SCH1001075201,bihar,nalanda,331112
ved school for excellence,"pethapur-randheja road, road, pethapur, randheja, gandhinagar, gujarat 382610, pethapur, randheja, gandhinagar, gandhinagar, gujarat, 382610, india",gati devmurari,Gati Devmurari,SCH1001084042816,gujarat,gandhinagar,430620
christ jyoti school,"barbhala pathsala gobindpur assam 781326, pathshala, assam, 781426, india",sr thejus csn,Mr justin r marak,SCH1001004694,assam,barpeta,230328
guardian public school,"daryapur, daryapur-gurua road, cherki, gaya, bihar 824237, gaya, bihar, 824237, gaya, bihar, 824237, india, gaya, bihar, 824237, india",vineeta singh,Banty Kumar,SCH1001084041854,bihar,gaya,330947
presidency global school,"cantt road, khagaul, patna, bihar 801105, , khagaul, patna, bihar 801105, patna, bihar 801105, bihar, 801105, india",dr. ajay kumar,Awdhesh kumar,SCH1001084041279,bihar,patna,330279
nishan public school,"danialpur road, karnal, near flying club haryana 132001, karnal, haryana, 132001, india",p.n. tiwari,Poonam Bamba,SCH1001021741,haryana,karnal,530139
guru nanak dev academy,"vill gumthala garhu pehowa distt kurukshetra haryana, kurukshetra, haryana, 136030, india",rajinder kaur,Rajinder Kaur,SCH1001084042848,haryana,kurukshetra,530337
indus public school,"vijay nagar, urban estate, jind, haryana 126102, vijay nagar, urban estate, jind, haryana 126102, vijay nagar, urban estate, jind, haryana 126102, haryana, jind 126102, india",aruna sharma,PRADEEP SINGH,SCH1001002942,haryana,jind,530414
indus public school,"vijay nagar, urban estate, jind, haryana 126102, vijay nagar, urban estate, jind, haryana 126102, vijay nagar, urban estate, jind, haryana 126102, haryana, jind 126102, india",aruna sharma,PRADEEP SINGH,SCH1001002942,haryana,jind,530794
loyola school,"nh31 ranchi road, harnaut nalanda, bihar - 803110, harnaut nalanda, bihar, 803110, india",fr. asit lakra,SUNIL,SCH1001082721,bihar,nalanda,330310
valley view school,"bnsh road, north lakhimpur, assam 787001, lakhimpur, assam, 787001, india","reema, devi","Debananda, Phukn",SCH1001031341,assam,lakhimpur,230156
new happy public school,"bilaspur road,jagadhri- 135102, bilaspur, haryana, 135102, india",monika,Monika,SCH1001057491,haryana,yamunanagar,530424
new happy public school,"bilaspur road,jagadhri- 135102, bilaspur, haryana, 135102, india",monika,Monika,SCH1001057491,haryana,yamunanagar,530586
faculty senior secondary school,"mother teresa road, gitanagar, guwahati, kamrup, assam, 781034, india","nabanita, borpuzar","nilakshi, choudhry",SCH1001084042914,assam,kamrup,230150
fellowship mission school,"fellowship nagar, nr. haria park,, silvassa road, dungra, vapi, gujarat, 396191, india, vapi, gujarat, 396191, india",ms. sunita rajput,Pushpa,SCH10010840422,gujarat,valsad,430093
rajanikant public school,"ward no-28,veena road,kuti tola ,nagar parishad, bihar 852131, ,veena road,kuti tola ,nagar parishad, bihar 852131, supaul, bihar, 852131, india","ashish, prabhakaran","kumod, kumar",SCH1001084042940,bihar,supaul,330704
gmr varalakshmi dav public school,"gmr nagar, rajam, srikakulam, andhra pradesh, india, 532127, srikakulam, andhra pradesh, 532127, india",k.v.r.k prasad,k sunitha rani,SCH100108404230,andhra pradesh,srikakulam,130173
goalpara english school,"bhalukdubi, goalpara tehsil-balijana p.o.-bhalukdubi, p.s.-goalpara, dist-goalpara state -assam pin-783101, bhalukdubi, goalpara tehsil-balijana p.o.-bhalukdubi, p.s.-goalpara, dist-goalpara state -assam pin-783101, goalpara, assam, 783101, india","dhruba kalita, kalita",NAZRUL,SCH1001080971,assam,goalpara,230082
dr d y patil pushapalata patil international school,"jaganpura, near hp gas godown, kankaebagh bypass, patna, , india, patna, bihar, 800002, india",arun,Urvashi Shrivastav,SCH1001084043027,bihar,patna,330671
dr d y patil pushapalata patil international school,"jaganpura, near hp gas godown, kankaebagh bypass, patna, , india, patna, bihar, 800002, india",arun,Urvashi Shrivastav,SCH1001084043027,bihar,patna,331234
delhi public school,"aakopur-ukhai, siwan-841227 (bihar), aakopur-ukhai, siwan-841227 (bihar), siwan, bihar, 841227, india","jyoti, kumari","Krishna, tiwari",SCH100108404930,bihar,siwan,330927
delhi public school,"aakopur-ukhai, siwan-841227 (bihar), aakopur-ukhai, siwan-841227 (bihar), siwan, bihar, 841227, india","jyoti, kumari","Krishna, tiwari",SCH100108404930,bihar,siwan,331139
geethanjali school,"kunchanapalli, tadepalli mandal, guntur, andhra pradesh, 522501, guntur, andhra pradesh, 522501, india",deena kumari,Mounica,SCH1001084043043,andhra pradesh,guntur,130718
faculty senior secondary school,"mother teresa road, gitanagar, guwahati, kamrup, assam, 781034, india","nabanita, borpuzar","nilakshi, choudhry",SCH1001084042914,assam,kamrup,230150
pragati high school,"main road, sattenapalli -522403, palnadu district, andhra pradesh, main road, sattenapalli -522403, palnadu district, andhra pradesh, sattenapalli, andhra pradesh, 522403, india",dr. makkena atchaiah,Mangenapudi Srikanth,SCH1001084041885,andhra pradesh,guntur,130738
azim national school,"at asrar nagar, kishanganj, bihar, 855101, kishanganj, bihar, 855101, india","chhetri, rk","CHHETRI, RK",SCH1001084041886,bihar,kishanganj,331140
unnati english academy,"r.s.no. 38, ""vari gruh"", opp, raghuramji party plot/ratna anushri apt, near umrigar school, umra., surat, gujarat                                                                                gujarat, 395007, india",pankaj sharma,pankaj sharma,SCH1001084041140,gujarat,surat,430399
oxford public school,"sureshpuram, malaypur, jamui-811313, jamui, bihar, 811113, india",ritu raj,SIMANTINI HAZRA,SCH1001084043102,bihar,jamui,330719
tagore school of studies,"badarpur ghat near yamaha showroom after iti badarpur assam engineering, alakulipur, assam 788806, badarpur ghat near yamaha showroom after iti badarpur assam engineering, alakulipur, assam 788806, badarpur, assam, 788806, india","susmitadey, nandi","Susmitadey, Nandi",SCH1001030051,assam,karimganj,230098
brahma baba techno school,"janagaon, titaguri pt-i, kokrajhar, janagaon, titaguri pt-i, kokrajhar, janagaon, titaguri pt-i, kokrajhar, 783370, 783370, india","nilakshi, doimary","Promesh, Basumatary",SCH100108404862,assam,kokrajhar,230270
gvk chinmaya vidyalaya,"kothuru, spsr, indukurupet, nellore, andhra pradesh, india, 524314, nellore, andhra pradesh, 524314, india",baddepudi haritha,baddepudi haritha,SCH1001049571,andhra pradesh,sri potti sriramulu nellore,130434
mount carmel english school,"parora, purnea, bihar-854304, purnea, bihar, 854304, india",suraj kumar choudhary,sumanth  choudhary,250205,bihar,purnia,330823
navyug public school,"old rohtak road, sonepat, haryana-131001, sonepat, haryana, 131001,, sonepat, sonepat, haryana, 131001, india",hemant sharma,Hemant,SCH100108404834,haryana,sonipat,530102
acme school,"acme school, 1st line, vidhyadharani colony, opp: eenadu office, pothurur, guntur district, ap - 522005, andhra pradesh, guntur, 522005, india","sowgandh krishna, nandamuri",Anuradha,SCH1001084041410,andhra pradesh,guntur,130763
himgiri public school,"himgiri public school, beholi road, samalkha, panipat, haryana, 132101, india, himgiri public school, beholi road, samalkha, panipat, haryana, 132101, india, panipat, haryana, 132101, india","promod, rathi","Renuka, Rohilla",SCH1001015871,haryana,panipat,530559
swami vivekanand public school,"laxmi nagar, campbhatta no. 4,, laxmi nagar, haryana, 135001, india",pooja bakshi,seema,SCH1001029941,haryana,yamunanagar,530475
scholars abode school,"mahangupur, n.h. 98, via naubatpur, p.o. chiraura,, patna, bihar, india, 801109, patna, bihar, 801109, india",dr mrs b priyam,Smriti Rawat,SCH1001062571,bihar,patna,330197
podar world school maneja,"podar world school, behind siemens company, near makarpura railway station, maneja, vadodara, gujarat, india, 390013, vadodara, gujarat, 390013, india","pooja, sharma","Manasi, Muley",SCH1001022631,gujarat,vadodara,430380
pm shri kendriya vidyalaya goalpara,"near main post office-bhalukdubi, goalpara ,assam ,pin -783101, goalpara, assam, 783101, india",shiv prakash sharma,Rinu Pradeep Jadon,SCH1001084043332,assam,goalpara,200057
dav centenary public school,"tohana,india, 125120, tohana, haryana, 125120, india",neeraj,Yashpal Singh,SCH1001001896,haryana,fatehabad,530396
nalanda public school,"nalanda rd,japarkuchi assam 781335, nalanda rd,japarkuchi assam 781335, japarkuchi, assam, 781335, india",ajay jain,Raj hajarika,SCH1001017152,assam,nalbari,230129
littera public school,"littera public school n.h. - 31, maujipur-vikrampur near chhapaak water park patna, patna, bihar, 803201, india",roshan kumar,Ravish Raman,SCH1001084043439,bihar,patna,331206
bal vikas progressive school,"jatol village, panipat, haryana 132103, panipat, haryana, 132103, india",anupama shah,Sangeeta Sharma,SCH100108404238,haryana,panipat,530642
bimala academy,"baghjan, jakhalabandha,nagaon,assam 782136, nagaon, assam, 782136, india",provin,Provin,SCH100108404378,assam,nagaon,230191
ratnam high school,"a. c . nagar near 6th town police station  nellore, nellore, andhra pradesh, 524001, india",d mahaboob basha,Ramakrishna,SCH1001084043561,andhra pradesh,sri potti sriramulu nellore,130266
new era international school,"jaganpura, east lakshmi nagar, ramkrishan nagar, patna, bihar 800027, jaganpura, east lakshmi nagar, ramkrishan nagar, patna, bihar 800027, patna, bihar, 800027, india","abhinav, kumar","Rajesh, Kumar",SCH100108404809,bihar,patna,331162
nanduba english academy,"bharthana,vesu, gujarat, 395017, surat, gujarat, 395017, india",dr. monika sharma,Prabha Sharma,SCH1001021061,gujarat,surat,430496
shemford futuristic school jorhat,"tr phookan rd, choladhara, jorhat, bhatemora gaon, assam, tr phookan rd, choladhara, jorhat, bhatemora gaon, assam, jorhat, assam, 785001, india",surojit chaliha,Surojit Chaliha,SCH1001084043605,assam,jorhat,230316
vidya sanskar school,"gokulpath, bailey road, danapur, patna bihar – 801503, patna, bihar, 801503, india",ravi bhushan singh,Piyush Kumar,SCH1001084043631,bihar,patna,330493
vandya international school,"nh 31, opp: tolaram bafna civil hospital,amingao, guwahati, assam, guwahati, assam, 781031, india",mrs ajanita hazarika,Bornali Bhattacharya,SCH1001084043637,assam,kamrup,230329
prabhat tara children english academy,"rajendra nagar, tinsukia, kaptanchuk gaon, assam 786192, tinsukia, assam, 786192, india",ramesh prasad gupta,Jaideep Chanda,SCH1001084043750,assam,tinsukia,230092
dav public school,"near ayurveda college, sara mohanpur, , bihar 846006, darbhanga, bihar, , india, near ayurveda college, sara mohanpur, , bihar 846006, darbhanga, bihar, , india, darbangha, bihar, 846006, india",snigdha sneha,Gunjesh,SCH10010126919,bihar,darbhanga,330260
mount litera zee school,"kharwa, jamni more, near khiribandh, bhagalpur, bihar - 812005, bhagalpur, bihar, 812005, india",durgesh sharma,Durgesh Sharma,SCH1002937,bihar,bhagalpur,330715
bihar public school,"lalganj sehra, paliganj, patna - 801110, patna, bihar, 801110, india",rina sinha,Bipul Vikrant,SCH1001084043782,bihar,patna,330570
st. dominic savio's high school,"shiksha kendra, nasriganj, digha, patna, bihar, patna , bihar - 800012, difha, bihar, 800012, india",mrs glenda galstaun,SANDRA ELLIS,SCH1001084043814,bihar,patna,330037
north east global school,"behind dhubri civil hospital, p.o: jhagrarpar, p.s:dhubri,, dhubri,, assam, 783325, india","abu, taher ali",SHOHEL,SCH1001084043842,assam,dhubri,230251
buddha world school,"x4cm+hm4 me. hai, kaun road, basarh, bihar 844128, x4cm+hm4 me. hai, kaun road, basarh, bihar 844128, x4cm+hm4 me. hai, kaun road, basarh, bihar 844128, x4cm+hm4 me. hai, kaun road, basarh, bihar 844128, 844128, india",sarika malhotra,SARIKA MALHOTRA,SCH1001084043863,bihar,vaishali,330812
vivekananda kendra vidyalaya,"debendra nagar, s road, jhoom basti, badarpur, assam 788802, badarpur, assam, 788802, india",prashanta chakraborty,Sandip patra,SCH10010804916,assam,cachar,230095
"st. thomas school, dhakuakhana","dhakuakhana, konwar ghahi, assam, dhakuakhana, assam, india, 787055, dhakuakhana, assam, 787055, india",seby m baby,SEBY M BABY,SCH1002242,assam,lakhimpur,230183
airport school,"aai residential colony, opp s v p international airport, sardarnagar, ahmedabad, gujarat, india, 382475, ahmedabad,, gujarat, 382475, india",ms. shalini dhanwani,Ms. Shalini Dhanwani,SCH1001084041235,gujarat,ahmedabad,430133
shivam school,"shivam school bihta patna bihar, vikashnagar, near jyoti petrolpump, bihar 801103, patna, bihar, 801103, india",shivam school,Amit Prakash,SCH1009999910,bihar,patna,330082
brilliant public school,"v9pj+gq4, chehra kalan, bihar 844118, v9pj+gq4, chehra kalan, bihar 844118, v9pj+gq4, chehra kalan, bihar 844118, v9pj+gq4, chehra kalan, bihar 844118, 844118, india",mr gunjan singh,Jitendra,SCH1009999921,bihar,vaishali,331037
